[{"OBJECT_NAME":"SITRO-AIS 15","OBJECT_ID":"2024-199D","EPOCH":"2026-03-09T21:41:54.706560","MEAN_MOTION":14.9706426,"ECCENTRICITY":0.00074523,"INCLINATION":97.3312,"RA_OF_ASC_NODE":274.4424,"ARG_OF_PERICENTER":51.6231,"MEAN_ANOMALY":308.566,"EPHEMERIS_TYPE":0,"CLASSIFICATION_TYPE":"U","NORAD_CAT_ID":61738,"ELEMENT_SET_NO":999,"REV_AT_EPOCH":11696,"BSTAR":0.0003624053,"MEAN_MOTION_DOT":4.126e-5,"MEAN_MOTION_DDOT":0},{"OBJECT_NAME":"STARLINK-33979","OBJECT_ID":"2025-094D","EPOCH":"2026-03-09T21:38:06.091296","MEAN_MOTION":14.96695037,"ECCENTRICITY":0.00064257,"INCLINATION":70.0023,"RA_OF_ASC_NODE":233.9743,"ARG_OF_PERICENTER":205.8045,"MEAN_ANOMALY":154.2794,"EPHEMERIS_TYPE":0,"CLASSIFICATION_TYPE":"U","NORAD_CAT_ID":63867,"ELEMENT_SET_NO":999,"REV_AT_EPOCH":4723,"BSTAR":-0.06422202,"MEAN_MOTION_DOT":-0.00685414,"MEAN_MOTION_DDOT":0}]
